start=new Date('2022-10-11T00:00:00.000Z').valueOf();
sats=[{"MEAN_ELEMENT_THEORY":"SGP4","ECCENTRICITY":"0.00012710","EPOCH":"2022-10-10T01:39:32.316192","CENTER_NAME":"EARTH","RA_OF_ASC_NODE":"157.9038","REV_AT_EPOCH":"10878","TLE_LINE1":"1 46743U 20074E   22283.06912403  .00001758  00000-0  13685-3 0  9996","COUNTRY_CODE":"US","PERIOD":"95.592","EPHEMERIS_TYPE":"0","MEAN_MOTION":"15.06405841","MEAN_MOTION_DDOT":"0.0000000000000","INCLINATION":"53.0533","RCS_SIZE":"LARGE","ELEMENT_SET_NO":"999","APOAPSIS":"548.076","REF_FRAME":"TEME","GP_ID":"214674239","OBJECT_ID":"2020-074E","CLASSIFICATION_TYPE":"U","BSTAR":"0.00013685000000","ARG_OF_PERICENTER":"118.9264","OBJECT_TYPE":"PAYLOAD","LAUNCH_DATE":"2020-10-24","PERIAPSIS":"546.315","MEAN_MOTION_DOT":"0.00001758","FILE":"3600948","MEAN_ANOMALY":"241.1853","DECAY_DATE":null,"SEMIMAJOR_AXIS":"6925.331","TIME_SYSTEM":"UTC","SITE":"AFETR","NORAD_CAT_ID":"46743","TLE_LINE2":"2 46743  53.0533 157.9038 0001271 118.9264 241.1853 15.06405841108782","OBJECT_NAME":"STARLINK-1892"},{"DECAY_DATE":null,"MEAN_ANOMALY":"285.3793","FILE":"3601747","TIME_SYSTEM":"UTC","SEMIMAJOR_AXIS":"6925.372","SITE":"AFETR","NORAD_CAT_ID":"46744","TLE_LINE2":"2 46744  53.0533 154.8631 0001531  74.7365 285.3793 15.06392381108886","OBJECT_NAME":"STARLINK-1894","GP_ID":"214717262","OBJECT_ID":"2020-074F","REF_FRAME":"TEME","APOAPSIS":"548.297","BSTAR":"-0.00000490360000","CLASSIFICATION_TYPE":"U","ARG_OF_PERICENTER":"74.7365","MEAN_MOTION_DOT":"-0.00000355","LAUNCH_DATE":"2020-10-24","PERIAPSIS":"546.177","OBJECT_TYPE":"PAYLOAD","TLE_LINE1":"1 46744U 20074F   22283.75008676 -.00000355  00000-0 -49036-5 0  9996","PERIOD":"95.593","COUNTRY_CODE":"US","ELEMENT_SET_NO":"999","RCS_SIZE":"LARGE","MEAN_MOTION_DDOT":"0.0000000000000","INCLINATION":"53.0533","MEAN_MOTION":"15.06392381","EPHEMERIS_TYPE":"0","MEAN_ELEMENT_THEORY":"SGP4","EPOCH":"2022-10-10T18:00:07.496064","ECCENTRICITY":"0.00015310","REV_AT_EPOCH":"10888","RA_OF_ASC_NODE":"154.8631","CENTER_NAME":"EARTH"},{"CLASSIFICATION_TYPE":"U","BSTAR":"-0.00101570000000","APOAPSIS":"341.822","REF_FRAME":"TEME","OBJECT_ID":"2020-074G","GP_ID":"214682903","OBJECT_TYPE":"PAYLOAD","PERIAPSIS":"338.310","LAUNCH_DATE":"2020-10-24","MEAN_MOTION_DOT":"-0.00162929","ARG_OF_PERICENTER":"50.5846","SEMIMAJOR_AXIS":"6718.201","TIME_SYSTEM":"UTC","FILE":"3601207","MEAN_ANOMALY":"309.5405","DECAY_DATE":null,"OBJECT_NAME":"STARLINK-1898","TLE_LINE2":"2 46745  53.0481  60.2059 0002614  50.5846 309.5405 15.76606427110206","NORAD_CAT_ID":"46745","SITE":"AFETR","MEAN_ELEMENT_THEORY":"SGP4","CENTER_NAME":"EARTH","RA_OF_ASC_NODE":"60.2059","REV_AT_EPOCH":"11020","ECCENTRICITY":"0.00026140","EPOCH":"2022-10-10T19:31:35.708736","TLE_LINE1":"1 46745U 20074G   22283.81360774 -.00162929  00000-0 -10157-2 0  9999","MEAN_MOTION":"15.76606427","EPHEMERIS_TYPE":"0","MEAN_MOTION_DDOT":"0.0000000000000","INCLINATION":"53.0481","RCS_SIZE":"LARGE","ELEMENT_SET_NO":"999","COUNTRY_CODE":"US","PERIOD":"91.335"},{"CLASSIFICATION_TYPE":"U","BSTAR":"0.00004780500000","REF_FRAME":"TEME","GP_ID":"214715760","OBJECT_ID":"2020-074H","APOAPSIS":"548.167","MEAN_MOTION_DOT":"0.00000431","OBJECT_TYPE":"PAYLOAD","PERIAPSIS":"546.245","LAUNCH_DATE":"2020-10-24","ARG_OF_PERICENTER":"75.6216","TIME_SYSTEM":"UTC","SEMIMAJOR_AXIS":"6925.341","DECAY_DATE":null,"MEAN_ANOMALY":"284.4926","FILE":"3601747","OBJECT_NAME":"STARLINK-1905","TLE_LINE2":"2 46746  53.0531 154.1962 0001388  75.6216 284.4926 15.06402534108904","SITE":"AFETR","NORAD_CAT_ID":"46746","MEAN_ELEMENT_THEORY":"SGP4","RA_OF_ASC_NODE":"154.1962","REV_AT_EPOCH":"10890","CENTER_NAME":"EARTH","EPOCH":"2022-10-10T21:33:47.361312","ECCENTRICITY":"0.00013880","TLE_LINE1":"1 46746U 20074H   22283.89846483  .00000431  00000-0  47805-4 0  9993","RCS_SIZE":"LARGE","ELEMENT_SET_NO":"999","MEAN_MOTION":"15.06402534","EPHEMERIS_TYPE":"0","INCLINATION":"53.0531","MEAN_MOTION_DDOT":"0.0000000000000","PERIOD":"95.592","COUNTRY_CODE":"US"},{"MEAN_MOTION":"15.06387939","EPHEMERIS_TYPE":"0","MEAN_MOTION_DDOT":"0.0000000000000","INCLINATION":"53.0523","RCS_SIZE":"LARGE","ELEMENT_SET_NO":"999","COUNTRY_CODE":"US","PERIOD":"95.593","TLE_LINE1":"1 46747U 20074J   22283.74734705 -.00001281  00000-0 -67162-4 0  9995","CENTER_NAME":"EARTH","RA_OF_ASC_NODE":"154.8784","REV_AT_EPOCH":"10888","ECCENTRICITY":"0.00014990","EPOCH":"2022-10-10T17:56:10.785120","MEAN_ELEMENT_THEORY":"SGP4","OBJECT_NAME":"STARLINK-1908","TLE_LINE2":"2 46747  53.0523 154.8784 0001499 110.6512 249.4638 15.06387939108886","SITE":"AFETR","NORAD_CAT_ID":"46747","TIME_SYSTEM":"UTC","SEMIMAJOR_AXIS":"6925.386","FILE":"3601747","DECAY_DATE":null,"MEAN_ANOMALY":"249.4638","OBJECT_TYPE":"PAYLOAD","PERIAPSIS":"546.212","LAUNCH_DATE":"2020-10-24","MEAN_MOTION_DOT":"-0.00001281","ARG_OF_PERICENTER":"110.6512","CLASSIFICATION_TYPE":"U","BSTAR":"-0.00006716200000","APOAPSIS":"548.289","REF_FRAME":"TEME","OBJECT_ID":"2020-074J","GP_ID":"214716511"},{"TLE_LINE1":"1 46748U 20074K   22283.35663134  .00001256  00000-0  10321-3 0  9994","COUNTRY_CODE":"US","PERIOD":"95.592","MEAN_MOTION":"15.06398822","EPHEMERIS_TYPE":"0","MEAN_MOTION_DDOT":"0.0000000000000","INCLINATION":"53.0533","RCS_SIZE":"LARGE","ELEMENT_SET_NO":"999","MEAN_ELEMENT_THEORY":"SGP4","ECCENTRICITY":"0.00016010","EPOCH":"2022-10-10T08:33:32.947776","CENTER_NAME":"EARTH","RA_OF_ASC_NODE":"156.6249","REV_AT_EPOCH":"10882","FILE":"3600948","DECAY_DATE":null,"MEAN_ANOMALY":"258.0892","SEMIMAJOR_AXIS":"6925.352","TIME_SYSTEM":"UTC","NORAD_CAT_ID":"46748","SITE":"AFETR","OBJECT_NAME":"STARLINK-1910","TLE_LINE2":"2 46748  53.0533 156.6249 0001601 102.0276 258.0892 15.06398822108826","APOAPSIS":"548.326","REF_FRAME":"TEME","GP_ID":"214674242","OBJECT_ID":"2020-074K","CLASSIFICATION_TYPE":"U","BSTAR":"0.00010321000000","ARG_OF_PERICENTER":"102.0276","OBJECT_TYPE":"PAYLOAD","PERIAPSIS":"546.108","LAUNCH_DATE":"2020-10-24","MEAN_MOTION_DOT":"0.00001256"},{"MEAN_MOTION_DOT":"0.00000952","OBJECT_TYPE":"PAYLOAD","PERIAPSIS":"546.315","LAUNCH_DATE":"2020-10-24","ARG_OF_PERICENTER":"98.7805","CLASSIFICATION_TYPE":"U","BSTAR":"0.00008280300000","REF_FRAME":"TEME","OBJECT_ID":"2020-074L","GP_ID":"214685112","APOAPSIS":"548.122","TLE_LINE2":"2 46749  53.0527 154.5162 0001305  98.7805 261.3332 15.06398354108917","OBJECT_NAME":"STARLINK-1911","SITE":"AFETR","NORAD_CAT_ID":"46749","SEMIMAJOR_AXIS":"6925.354","TIME_SYSTEM":"UTC","DECAY_DATE":null,"MEAN_ANOMALY":"261.3332","FILE":"3601269","RA_OF_ASC_NODE":"154.5162","REV_AT_EPOCH":"10891","CENTER_NAME":"EARTH","EPOCH":"2022-10-10T19:52:56.662176","ECCENTRICITY":"0.00013050","MEAN_ELEMENT_THEORY":"SGP4","RCS_SIZE":"LARGE","ELEMENT_SET_NO":"999","EPHEMERIS_TYPE":"0","MEAN_MOTION":"15.06398354","MEAN_MOTION_DDOT":"0.0000000000000","INCLINATION":"53.0527","PERIOD":"95.592","COUNTRY_CODE":"US","TLE_LINE1":"1 46749U 20074L   22283.82843359  .00000952  00000-0  82803-4 0  9993"},{"RA_OF_ASC_NODE":"154.8348","REV_AT_EPOCH":"10888","CENTER_NAME":"EARTH","EPOCH":"2022-10-10T18:12:05.829984","ECCENTRICITY":"0.00014770","MEAN_ELEMENT_THEORY":"SGP4","RCS_SIZE":"LARGE","ELEMENT_SET_NO":"999","EPHEMERIS_TYPE":"0","MEAN_MOTION":"15.06399404","MEAN_MOTION_DDOT":"0.0000000000000","INCLINATION":"53.0552","PERIOD":"95.592","COUNTRY_CODE":"US","TLE_LINE1":"1 46751U 20074N   22283.75840081  .00001841  00000-0  14247-3 0  9991","MEAN_MOTION_DOT":"0.00001841","OBJECT_TYPE":"PAYLOAD","PERIAPSIS":"546.193","LAUNCH_DATE":"2020-10-24","ARG_OF_PERICENTER":"117.9665","CLASSIFICATION_TYPE":"U","BSTAR":"0.00014247000000","REF_FRAME":"TEME","GP_ID":"214716261","OBJECT_ID":"2020-074N","APOAPSIS":"548.238","OBJECT_NAME":"STARLINK-1920","TLE_LINE2":"2 46751  53.0552 154.8348 0001477 117.9665 242.1474 15.06399404108882","NORAD_CAT_ID":"46751","SITE":"AFETR","TIME_SYSTEM":"UTC","SEMIMAJOR_AXIS":"6925.350","DECAY_DATE":null,"MEAN_ANOMALY":"242.1474","FILE":"3601747"},{"REV_AT_EPOCH":"10890","RA_OF_ASC_NODE":"154.1781","CENTER_NAME":"EARTH","EPOCH":"2022-10-10T21:39:06.545376","ECCENTRICITY":"0.00013110","MEAN_ELEMENT_THEORY":"SGP4","ELEMENT_SET_NO":"999","RCS_SIZE":"LARGE","MEAN_MOTION_DDOT":"0.0000000000000","INCLINATION":"53.0561","MEAN_MOTION":"15.06393768","EPHEMERIS_TYPE":"0","PERIOD":"95.593","COUNTRY_CODE":"US","TLE_LINE1":"1 46752U 20074P   22283.90215909  .00000460  00000-0  49797-4 0  9999","MEAN_MOTION_DOT":"0.00000460","LAUNCH_DATE":"2020-10-24","PERIAPSIS":"546.325","OBJECT_TYPE":"PAYLOAD","ARG_OF_PERICENTER":"114.5845","BSTAR":"0.00004979700000","CLASSIFICATION_TYPE":"U","GP_ID":"214716011","OBJECT_ID":"2020-074P","REF_FRAME":"TEME","APOAPSIS":"548.141","OBJECT_NAME":"STARLINK-1921","TLE_LINE2":"2 46752  53.0561 154.1781 0001311 114.5845 245.5281 15.06393768108900","SITE":"AFETR","NORAD_CAT_ID":"46752","SEMIMAJOR_AXIS":"6925.368","TIME_SYSTEM":"UTC","DECAY_DATE":null,"MEAN_ANOMALY":"245.5281","FILE":"3601747"},{"PERIOD":"95.592","COUNTRY_CODE":"US","ELEMENT_SET_NO":"999","RCS_SIZE":"LARGE","INCLINATION":"53.0544","MEAN_MOTION_DDOT":"0.0000000000000","MEAN_MOTION":"15.06408151","EPHEMERIS_TYPE":"0","TLE_LINE1":"1 46753U 20074Q   22283.07282317  .00007953  00000-0  55210-3 0  9995","EPOCH":"2022-10-10T01:44:51.921888","ECCENTRICITY":"0.00013210","REV_AT_EPOCH":"10880","RA_OF_ASC_NODE":"157.9060","CENTER_NAME":"EARTH","MEAN_ELEMENT_THEORY":"SGP4","SITE":"AFETR","NORAD_CAT_ID":"46753","TLE_LINE2":"2 46753  53.0544 157.9060 0001321  75.6933 284.4203 15.06408151108807","OBJECT_NAME":"STARLINK-1922","MEAN_ANOMALY":"284.4203","DECAY_DATE":null,"FILE":"3601572","SEMIMAJOR_AXIS":"6925.324","TIME_SYSTEM":"UTC","ARG_OF_PERICENTER":"75.6933","MEAN_MOTION_DOT":"0.00007953","LAUNCH_DATE":"2020-10-24","PERIAPSIS":"546.274","OBJECT_TYPE":"PAYLOAD","OBJECT_ID":"2020-074Q","GP_ID":"214691834","REF_FRAME":"TEME","APOAPSIS":"548.103","BSTAR":"0.00055210000000","CLASSIFICATION_TYPE":"U"}];
